0 ASTRA 1B
1 21139U 91015A   13281.73085021 -.00000217  00000-0  10000-3 0  9280
2 21139 007.0607 056.9149 0003315 223.6401 136.3831 00.98511693 70680
0 ASTRA 1B
1 21139U 91015A   13283.76096481 -.00000174  00000-0  10000-3 0  9290
2 21139 007.0648 056.8925 0003621 221.2779 138.7350 00.98510743 70708
0 ASTRA 1B
1 21139U 91015A   13283.76097511 -.00000174  00000-0  10000-3 0  9307
2 21139 007.0650 056.8929 0004110 219.2353 140.7754 00.98510713 70702
0 ASTRA 1B
1 21139U 91015A   13283.76100449  .00000000  00000-0  10000-3 0  9309
2 21139 007.0658 056.8910 0005020 218.7538 141.2593 00.98507107 70700
0 ASTRA 1B
1 21139U 91015A   13285.79116327 -.00000118  00000-0  10000-3 0  9318
2 21139 007.0690 056.8709 0004247 219.0911 140.9277 00.98509662 70726
0 ASTRA 1B
1 21139U 91015A   13286.80625889 -.00000087  00000-0  10000-3 0  9325
2 21139 007.0710 056.8603 0004649 219.1580 140.8598 00.98509181 70733
0 ASTRA 1B
1 21139U 91015A   13288.83640883 -.00000032  00000-0  10000-3 0  9332
2 21139 007.0750 056.8389 0004801 219.2491 140.7529 00.98508417 70756
0 ASTRA 1B
1 21139U 91015A   13290.86652825  .00000007  00000-0  10000-3 0  9349
2 21139 007.0789 056.8178 0004780 219.0847 140.8870 00.98508043 70770
0 ASTRA 1B
1 21139U 91015A   13293.91171217  .00000014  00000-0  10000-3 0  9358
2 21139 007.0848 056.7857 0004717 218.8445 141.0868 00.98508402 70803
